KUIPER-00616            
1 69775U 26151N   26194.00002315  .00024584  00000+0  64810-3 0  9996
2 69775  51.8777 190.9264 0003314 115.7559  50.7756 15.38356397  1300
KUIPER-00617            
1 69776U 26151P   26194.03830509  .00021787  00000+0  58671-3 0  9994
2 69776  51.8756 190.7743 0005712 129.1496 231.0000 15.37764581  1685
KUIPER-00619            
1 69777U 26151Q   26194.00002315  .00026290  00000+0  68901-3 0  9999
2 69777  51.8794 190.8999 0001739  61.2161 115.4704 15.38501388  1706
KUIPER-00621            
1 69778U 26151R   26194.00002315  .00024713  00000+0  65280-3 0  9995
2 69778  51.8787 190.9223 0002173 107.8465  59.9202 15.38293884  2454
KUIPER-00622            
1 69779U 26151S   26194.00002315  .00024242  00000+0  66844-3 0  9990
2 69779  51.8732 191.0279 0006975 140.4183 337.1868 15.36958169  2318
KUIPER-00623            
1 69780U 26151T   26194.00002315  .00024009  00000+0  65299-3 0  9996
2 69780  51.8775 190.9880 0005201 127.1876   9.2072 15.37400050  2434
KUIPER-00626            
1 69781U 26151U   26194.00002315  .00031643  00000+0  90796-3 0  9999
2 69781  51.8717 191.1087 0009893 159.0329 278.5892 15.35544489  2671
KUIPER-00627            
1 69782U 26151V   26194.00002315  .00026484  00000+0  76450-3 0  9998
2 69782  51.8691 191.1265 0010990 160.0221 268.3994 15.35440922  1300
KUIPER-00629            
1 69783U 26151W   26194.00002315  .00023704  00000+0  65430-3 0  9997
2 69783  51.8743 191.0326 0007492 139.9192 335.2330 15.36934697  2005
KUIPER-00631            
1 69784U 26151X   26194.00002315  .00023771  00000+0  66083-3 0  9997
2 69784  51.8711 191.0504 0007984 147.4685 318.8290 15.36708422  1305
KUIPER-00634            
1 69785U 26151Y   26194.00002315  .00024426  00000+0  65775-3 0  9993
2 69785  51.8767 190.9702 0003890 127.9690  17.6143 15.37702578  1405
KUIPER-00639            
1 69786U 26151Z   26194.00002315  .00032116  00000+0  91123-3 0  9995
2 69786  51.8687 191.0890 0009861 154.1658 292.7466 15.35889688  1306
KUIPER-00641            
1 69787U 26151AA  26194.00002315  .00023455  00000+0  68582-3 0  9995
2 69787  51.8677 191.1293 0010760 156.3000 270.4252 15.35110191  2313
KUIPER-00644            
1 69788U 26151AB  26194.00002315  .00024586  00000+0  68692-3 0  9994
2 69788  51.8737 191.0651 0008659 150.2064 308.9955 15.36527451  2617
KUIPER-00646            
1 69789U 26151AC  26194.00002315  .00030499  00000+0  86467-3 0  9995
2 69789  51.8701 191.0859 0009757 156.2352 292.4103 15.35941879  1507
KUIPER-00647            
1 69790U 26151AD  26194.00002315  .00024834  00000+0  71370-3 0  9990
2 69790  51.8664 191.1174 0010767 156.4497 275.8707 15.35619369  2459
KUIPER-00662            
1 69791U 26151AE  26194.17658905 -.00012708  00000+0 -33982-3 0  9997
2 69791  51.8723 190.2054 0008467 146.8116 213.3402 15.36575828  1706
LINK                    
1 69792U 26152A   26194.14746433  .00126814  00000+0  11150-2 0  9994
2 69792  20.5928 343.1558 0024210 327.0475  32.8464 15.66608494  1532
2026-152B               
1 69793U 26152B   26194.08965238  .00041225  00000+0  39145-3 0  9991
2 69793  20.5990 343.7171 0022379 324.2251  35.6696 15.64641636  1524
ISS OBJECT YJ           
1 69794U 98067YJ  26193.40676478  .00019437  00000+0  34844-3 0  9997
2 69794  51.6302 175.2240 0007802 301.5354  58.4872 15.49914214  1569
ISS OBJECT YK           
1 69795U 98067YK  26193.40414969  .00035221  00000+0  61097-3 0  9992
2 69795  51.6303 175.2070 0006857 311.1581  48.8816 15.50502709  1565
ISS OBJECT YL           
1 69796U 98067YL  26193.40471851  .00027308  00000+0  47886-3 0  9993
2 69796  51.6300 175.2112 0008907 303.4187  56.5949 15.50313816  1555
ISS OBJECT YM           
1 69797U 98067YM  26193.40453950  .00028380  00000+0  49648-3 0  9993
2 69797  51.6301 175.2096 0009640 294.3607  65.6376 15.50351860  1543
ISS OBJECT YN           
1 69798U 98067YN  26193.40489169  .00018589  00000+0  33019-3 0  9990
2 69798  51.6303 175.2115 0009248 305.3124  54.6999 15.50197893  1564
ISS OBJECT YP           
1 69799U 98067YP  26193.40446167  .00027281  00000+0  47760-3 0  9999
2 69799  51.6299 175.2093 0009819 294.6692  65.3274 15.50352677  1555
STARLINK-37520          
1 69819U 26154A   26194.16668980 -.01714154  81263-3 -52334-2 0  9994
2 69819  53.1599 303.2310 0000580  79.2173 195.9438 15.91394716  2345
STARLINK-37553          
1 69820U 26154B   26194.16668980 -.01725096  82320-3 -52337-2 0  9991
2 69820  53.1597 303.2242 0000715  71.4582 206.8886 15.91518540  2349
STARLINK-37561          
1 69821U 26154C   26194.16668980 -.01732212  83045-3 -52226-2 0  9992
2 69821  53.1598 303.2175 0000803  72.3561 209.1895 15.91640343  2344
STARLINK-37521          
1 69822U 26154D   26194.16668980 -.01721090  82167-3 -51550-2 0  9998
2 69822  53.1597 303.2119 0000673  70.1384 214.1429 15.91766296  2341
STARLINK-37628          
1 69823U 26154E   26194.16668980 -.01750398  84881-3 -52059-2 0  9992
2 69823  53.1597 303.2054 0000629  73.5266 213.8367 15.91907137  2345
