OBJECT_NAME,OBJECT_ID,EPOCH,MEAN_MOTION,ECCENTRICITY,INCLINATION,RA_OF_ASC_NODE,ARG_OF_PERICENTER,MEAN_ANOMALY,EPHEMERIS_TYPE,CLASSIFICATION_TYPE,NORAD_CAT_ID,ELEMENT_SET_NO,REV_AT_EPOCH,BSTAR,MEAN_MOTION_DOT,MEAN_MOTION_DDOT
KUIPER-00616,2026-151N,2026-07-13T00:00:02.000160,15.38356397,.0003314,51.8777,190.9264,115.7559,50.7756,0,U,69775,999,130,.6481E-3,.24584E-3,0
KUIPER-00617,2026-151P,2026-07-13T00:55:09.559776,15.37764581,.0005712,51.8756,190.7743,129.1496,231.0000,0,U,69776,999,168,.58671E-3,.21787E-3,0
KUIPER-00619,2026-151Q,2026-07-13T00:00:02.000160,15.38501388,.0001739,51.8794,190.8999,61.2161,115.4704,0,U,69777,999,170,.68901E-3,.2629E-3,0
KUIPER-00621,2026-151R,2026-07-13T00:00:02.000160,15.38293884,.0002173,51.8787,190.9223,107.8465,59.9202,0,U,69778,999,245,.6528E-3,.24713E-3,0
KUIPER-00622,2026-151S,2026-07-13T00:00:02.000160,15.36958169,.0006975,51.8732,191.0279,140.4183,337.1868,0,U,69779,999,231,.66844E-3,.24242E-3,0
KUIPER-00623,2026-151T,2026-07-13T00:00:02.000160,15.37400050,.0005201,51.8775,190.9880,127.1876,9.2072,0,U,69780,999,243,.65299E-3,.24009E-3,0
KUIPER-00626,2026-151U,2026-07-13T00:00:02.000160,15.35544489,.0009893,51.8717,191.1087,159.0329,278.5892,0,U,69781,999,267,.90796E-3,.31643E-3,0
KUIPER-00627,2026-151V,2026-07-13T00:00:02.000160,15.35440922,.001099,51.8691,191.1265,160.0221,268.3994,0,U,69782,999,130,.7645E-3,.26484E-3,0
KUIPER-00629,2026-151W,2026-07-13T00:00:02.000160,15.36934697,.0007492,51.8743,191.0326,139.9192,335.2330,0,U,69783,999,200,.6543E-3,.23704E-3,0
KUIPER-00631,2026-151X,2026-07-13T00:00:02.000160,15.36708422,.0007984,51.8711,191.0504,147.4685,318.8290,0,U,69784,999,130,.66083E-3,.23771E-3,0
KUIPER-00634,2026-151Y,2026-07-13T00:00:02.000160,15.37702578,.000389,51.8767,190.9702,127.9690,17.6143,0,U,69785,999,140,.65775E-3,.24426E-3,0
KUIPER-00639,2026-151Z,2026-07-13T00:00:02.000160,15.35889688,.0009861,51.8687,191.0890,154.1658,292.7466,0,U,69786,999,130,.91123E-3,.32116E-3,0
KUIPER-00641,2026-151AA,2026-07-13T00:00:02.000160,15.35110191,.001076,51.8677,191.1293,156.3000,270.4252,0,U,69787,999,231,.68582E-3,.23455E-3,0
KUIPER-00644,2026-151AB,2026-07-13T00:00:02.000160,15.36527451,.0008659,51.8737,191.0651,150.2064,308.9955,0,U,69788,999,261,.68692E-3,.24586E-3,0
KUIPER-00646,2026-151AC,2026-07-13T00:00:02.000160,15.35941879,.0009757,51.8701,191.0859,156.2352,292.4103,0,U,69789,999,150,.86467E-3,.30499E-3,0
KUIPER-00647,2026-151AD,2026-07-13T00:00:02.000160,15.35619369,.0010767,51.8664,191.1174,156.4497,275.8707,0,U,69790,999,245,.7137E-3,.24834E-3,0
KUIPER-00662,2026-151AE,2026-07-13T04:14:17.293920,15.36575828,.0008467,51.8723,190.2054,146.8116,213.3402,0,U,69791,999,170,-.33982E-3,-.12708E-3,0
LINK,2026-152A,2026-07-13T03:32:20.918112,15.66608494,.002421,20.5928,343.1558,327.0475,32.8464,0,U,69792,999,153,.1115E-2,.126814E-2,0
2026-152B,2026-152B,2026-07-13T02:09:05.965632,15.64641636,.0022379,20.5990,343.7171,324.2251,35.6696,0,U,69793,999,152,.39145E-3,.41225E-3,0
ISS OBJECT YJ,1998-067YJ,2026-07-12T09:45:44.476992,15.49914214,.00078028,51.6302,175.2240,301.5354,58.4872,0,U,69794,999,156,.34844292E-3,.19437E-3,0
ISS OBJECT YK,1998-067YK,2026-07-12T09:41:58.533216,15.50502709,.00068578,51.6303,175.2070,311.1581,48.8816,0,U,69795,999,156,.61097406E-3,.35221E-3,0
ISS OBJECT YL,1998-067YL,2026-07-12T09:42:47.679264,15.50313816,.00089073,51.6300,175.2112,303.4187,56.5949,0,U,69796,999,155,.47885864E-3,.27308E-3,0
ISS OBJECT YM,1998-067YM,2026-07-12T09:42:32.212800,15.50351860,.00096408,51.6301,175.2096,294.3607,65.6376,0,U,69797,999,154,.49647778E-3,.2838E-3,0
ISS OBJECT YN,1998-067YN,2026-07-12T09:43:02.642016,15.50197893,.00092486,51.6303,175.2115,305.3124,54.6999,0,U,69798,999,156,.33018519E-3,.18589E-3,0
ISS OBJECT YP,1998-067YP,2026-07-12T09:42:25.488288,15.50352677,.00098196,51.6299,175.2093,294.6692,65.3274,0,U,69799,999,155,.47759677E-3,.27281E-3,0
STARLINK-37520,2026-154A,2026-07-13T04:00:01.998720,15.91394716,.000058,53.1599,303.2310,79.2173,195.9438,0,U,69819,999,234,-.52334E-2,-.1714154E-1,.81263E-3
STARLINK-37553,2026-154B,2026-07-13T04:00:01.998720,15.91518540,.0000715,53.1597,303.2242,71.4582,206.8886,0,U,69820,999,234,-.52337E-2,-.1725096E-1,.8232E-3
STARLINK-37561,2026-154C,2026-07-13T04:00:01.998720,15.91640343,.0000803,53.1598,303.2175,72.3561,209.1895,0,U,69821,999,234,-.52226E-2,-.1732212E-1,.83045E-3
STARLINK-37521,2026-154D,2026-07-13T04:00:01.998720,15.91766296,.0000673,53.1597,303.2119,70.1384,214.1429,0,U,69822,999,234,-.5155E-2,-.172109E-1,.82167E-3
STARLINK-37628,2026-154E,2026-07-13T04:00:01.998720,15.91907137,.0000629,53.1597,303.2054,73.5266,213.8367,0,U,69823,999,234,-.52059E-2,-.1750398E-1,.84881E-3
